{
  "links" : {
    "next" : "https://api.nasa.gov/neo/rest/v1/feed?start_date=2001-08-23&end_date=2001-08-23&detailed=true&api_key=t0TVs3DtDT2H8Oy2Zy8m2eVrNsAVKAexjcZXUckd",
    "prev" : "https://api.nasa.gov/neo/rest/v1/feed?start_date=2001-08-21&end_date=2001-08-21&detailed=true&api_key=t0TVs3DtDT2H8Oy2Zy8m2eVrNsAVKAexjcZXUckd",
    "self" : "https://api.nasa.gov/neo/rest/v1/feed?start_date=2001-08-22&end_date=2001-08-22&detailed=true&api_key=t0TVs3DtDT2H8Oy2Zy8m2eVrNsAVKAexjcZXUckd"
  },
  "element_count" : 4,
  "near_earth_objects" : {
    "2001-08-22" : [ {
      "links" : {
        "self" : "https://api.nasa.gov/neo/rest/v1/neo/2136770?api_key=t0TVs3DtDT2H8Oy2Zy8m2eVrNsAVKAexjcZXUckd"
      },
      "neo_reference_id" : "2136770",
      "name" : "136770 (1996 PC1)",
      "nasa_jpl_url" : "http://ssd.jpl.nasa.gov/sbdb.cgi?sstr=2136770",
      "absolute_magnitude_h" : 20.5,
      "estimated_diameter" : {
        "kilometers" : {
          "estimated_diameter_min" : 0.2111324448,
          "estimated_diameter_max" : 0.4721064988
        },
        "meters" : {
          "estimated_diameter_min" : 211.1324447897,
          "estimated_diameter_max" : 472.1064988055
        },
        "miles" : {
          "estimated_diameter_min" : 0.1311915784,
          "estimated_diameter_max" : 0.2933532873
        },
        "feet" : {
          "estimated_diameter_min" : 692.6917701639,
          "estimated_diameter_max" : 1548.9058855411
        }
      },
      "is_potentially_hazardous_asteroid" : false,
      "close_approach_data" : [ {
        "close_approach_date" : "2001-08-22",
        "epoch_date_close_approach" : 998463600000,
        "relative_velocity" : {
          "kilometers_per_second" : "16.0610728977",
          "kilometers_per_hour" : "57819.8624316606",
          "miles_per_hour" : "35927.0139648282"
        },
        "miss_distance" : {
          "astronomical" : "0.0962147192",
          "lunar" : "37.4275245667",
          "kilometers" : "14393517",
          "miles" : "8943717"
        },
        "orbiting_body" : "Earth"
      } ],
      "orbital_data" : {
        "orbit_id" : "21",
        "orbit_determination_date" : "2017-04-06 09:28:03",
        "orbit_uncertainty" : "0",
        "minimum_orbit_intersection" : ".0886756",
        "jupiter_tisserand_invariant" : "3.790",
        "epoch_osculation" : "2458000.5",
        "eccentricity" : ".4517122235083388",
        "semi_major_axis" : "1.838676450850415",
        "inclination" : "25.10976224415651",
        "ascending_node_longitude" : "326.2935608875486",
        "orbital_period" : "910.6602864782672",
        "perihelion_distance" : "1.008123822924353",
        "perihelion_argument" : "45.84567701972856",
        "aphelion_distance" : "2.669229078776477",
        "perihelion_time" : "2457647.734936647772",
        "mean_anomaly" : "139.4542231526561",
        "mean_motion" : ".395317557321186",
        "equinox" : "J2000"
      }
    }, {
      "links" : {
        "self" : "https://api.nasa.gov/neo/rest/v1/neo/3753857?api_key=t0TVs3DtDT2H8Oy2Zy8m2eVrNsAVKAexjcZXUckd"
      },
      "neo_reference_id" : "3753857",
      "name" : "(2016 LK10)",
      "nasa_jpl_url" : "http://ssd.jpl.nasa.gov/sbdb.cgi?sstr=3753857",
      "absolute_magnitude_h" : 24.7,
      "estimated_diameter" : {
        "kilometers" : {
          "estimated_diameter_min" : 0.0305179233,
          "estimated_diameter_max" : 0.0682401509
        },
        "meters" : {
          "estimated_diameter_min" : 30.5179232594,
          "estimated_diameter_max" : 68.2401509401
        },
        "miles" : {
          "estimated_diameter_min" : 0.0189629525,
          "estimated_diameter_max" : 0.0424024508
        },
        "feet" : {
          "estimated_diameter_min" : 100.1244233463,
          "estimated_diameter_max" : 223.8850168104
        }
      },
      "is_potentially_hazardous_asteroid" : false,
      "close_approach_data" : [ {
        "close_approach_date" : "2001-08-22",
        "epoch_date_close_approach" : 998463600000,
        "relative_velocity" : {
          "kilometers_per_second" : "6.5091556035",
          "kilometers_per_hour" : "23432.9601726137",
          "miles_per_hour" : "14560.3301694777"
        },
        "miss_distance" : {
          "astronomical" : "0.3130194531",
          "lunar" : "121.7645645142",
          "kilometers" : "46827044",
          "miles" : "29096976"
        },
        "orbiting_body" : "Earth"
      } ],
      "orbital_data" : {
        "orbit_id" : "8",
        "orbit_determination_date" : "2017-04-06 08:25:26",
        "orbit_uncertainty" : "5",
        "minimum_orbit_intersection" : ".0399666",
        "jupiter_tisserand_invariant" : "5.607",
        "epoch_osculation" : "2458000.5",
        "eccentricity" : ".1958111551358724",
        "semi_major_axis" : "1.105517373054855",
        "inclination" : "4.866661515519136",
        "ascending_node_longitude" : "123.0169566625932",
        "orbital_period" : "424.5675372698979",
        "perihelion_distance" : ".8890447392142089",
        "perihelion_argument" : "32.74943894447071",
        "aphelion_distance" : "1.321990006895501",
        "perihelion_time" : "2457880.388473802817",
        "mean_anomaly" : "101.8451615708386",
        "mean_motion" : ".8479216341289602",
        "equinox" : "J2000"
      }
    }, {
      "links" : {
        "self" : "https://api.nasa.gov/neo/rest/v1/neo/3422252?api_key=t0TVs3DtDT2H8Oy2Zy8m2eVrNsAVKAexjcZXUckd"
      },
      "neo_reference_id" : "3422252",
      "name" : "(2008 OQ8)",
      "nasa_jpl_url" : "http://ssd.jpl.nasa.gov/sbdb.cgi?sstr=3422252",
      "absolute_magnitude_h" : 22.1,
      "estimated_diameter" : {
        "kilometers" : {
          "estimated_diameter_min" : 0.1010543415,
          "estimated_diameter_max" : 0.2259643771
        },
        "meters" : {
          "estimated_diameter_min" : 101.054341542,
          "estimated_diameter_max" : 225.9643771094
        },
        "miles" : {
          "estimated_diameter_min" : 0.0627922373,
          "estimated_diameter_max" : 0.140407711
        },
        "feet" : {
          "estimated_diameter_min" : 331.5431259047,
          "estimated_diameter_max" : 741.3529669956
        }
      },
      "is_potentially_hazardous_asteroid" : false,
      "close_approach_data" : [ {
        "close_approach_date" : "2001-08-22",
        "epoch_date_close_approach" : 998463600000,
        "relative_velocity" : {
          "kilometers_per_second" : "3.7472700152",
          "kilometers_per_hour" : "13490.1720545628",
          "miles_per_hour" : "8382.2682969032"
        },
        "miss_distance" : {
          "astronomical" : "0.3187976407",
          "lunar" : "124.0122833252",
          "kilometers" : "47691448",
          "miles" : "29634092"
        },
        "orbiting_body" : "Earth"
      } ],
      "orbital_data" : {
        "orbit_id" : "20",
        "orbit_determination_date" : "2017-04-06 09:03:11",
        "orbit_uncertainty" : "0",
        "minimum_orbit_intersection" : ".218335",
        "jupiter_tisserand_invariant" : "3.436",
        "epoch_osculation" : "2458000.5",
        "eccentricity" : ".4656070254750617",
        "semi_major_axis" : "2.303459872329227",
        "inclination" : "1.597392678932076",
        "ascending_node_longitude" : "134.5294666190051",
        "orbital_period" : "1276.936800809761",
        "perihelion_distance" : "1.23095277287285",
        "perihelion_argument" : "189.2213362933446",
        "aphelion_distance" : "3.375966971785604",
        "perihelion_time" : "2458519.838955913063",
        "mean_anomaly" : "213.5855306150297",
        "mean_motion" : ".2819246808234428",
        "equinox" : "J2000"
      }
    }, {
      "links" : {
        "self" : "https://api.nasa.gov/neo/rest/v1/neo/3266944?api_key=t0TVs3DtDT2H8Oy2Zy8m2eVrNsAVKAexjcZXUckd"
      },
      "neo_reference_id" : "3266944",
      "name" : "(2005 BG28)",
      "nasa_jpl_url" : "http://ssd.jpl.nasa.gov/sbdb.cgi?sstr=3266944",
      "absolute_magnitude_h" : 25.6,
      "estimated_diameter" : {
        "kilometers" : {
          "estimated_diameter_min" : 0.0201629919,
          "estimated_diameter_max" : 0.0450858206
        },
        "meters" : {
          "estimated_diameter_min" : 20.1629919443,
          "estimated_diameter_max" : 45.0858206172
        },
        "miles" : {
          "estimated_diameter_min" : 0.0125286985,
          "estimated_diameter_max" : 0.0280150214
        },
        "feet" : {
          "estimated_diameter_min" : 66.1515504905,
          "estimated_diameter_max" : 147.9193637137
        }
      },
      "is_potentially_hazardous_asteroid" : false,
      "close_approach_data" : [ {
        "close_approach_date" : "2001-08-22",
        "epoch_date_close_approach" : 998463600000,
        "relative_velocity" : {
          "kilometers_per_second" : "5.3833198684",
          "kilometers_per_hour" : "19379.9515261235",
          "miles_per_hour" : "12041.9482135516"
        },
        "miss_distance" : {
          "astronomical" : "0.1540273609",
          "lunar" : "59.9166412354",
          "kilometers" : "23042164",
          "miles" : "14317737"
        },
        "orbiting_body" : "Earth"
      } ],
      "orbital_data" : {
        "orbit_id" : "10",
        "orbit_determination_date" : "2017-04-06 09:11:31",
        "orbit_uncertainty" : "7",
        "minimum_orbit_intersection" : ".0106174",
        "jupiter_tisserand_invariant" : "5.933",
        "epoch_osculation" : "2458000.5",
        "eccentricity" : ".2272553636804437",
        "semi_major_axis" : "1.025627036789493",
        "inclination" : "6.134197098300142",
        "ascending_node_longitude" : "313.4912317701367",
        "orbital_period" : "379.3871509568529",
        "perihelion_distance" : ".7925477915434009",
        "perihelion_argument" : "80.87904335906639",
        "aphelion_distance" : "1.258706282035585",
        "perihelion_time" : "2457880.828412396710",
        "mean_anomaly" : "113.55622199784",
        "mean_motion" : ".9488987676362878",
        "equinox" : "J2000"
      }
    } ]
  }
}